satname,norad_id,inclination_deg,eccentricity,mean_motion_rev_per_day,perigee_km,apogee_km,l1,l2
STARLINK-1296,45412,53.1594,0.0002202,15.33890765,462.7105262665491,465.72389906180706,1 45412U 20019BE  26109.92647654  .00029836  00000+0  90507-3 0  9990,2 45412  53.1594 297.1967 0002202 230.2512 129.8296 15.33890765336294
STARLINK-1309,45414,53.0639,0.0005056,15.62953684,375.71388012220996,382.5468288710772,1 45414U 20019BG  26110.49067094  .00101843  00000+0  10951-2 0  9993,2 45414  53.0639 280.3843 0005056 216.6323 143.4345 15.62953684336558
STARLINK-1316,45415,53.1586,0.0002854,15.3415606,461.4757946062946,465.3809601236944,1 45415U 20019BH  26110.23053314  .00024226  00000+0  73139-3 0  9993,2 45415  53.1586 295.8085 0002854 243.4715 116.5995 15.34156060336369
STARLINK-1286,45417,53.0479,0.000289,15.54212955,402.48127228669273,406.4016026235413,1 45417U 20019BK  26109.93401510  .00040473  00000+0  61433-3 0  9991,2 45417  53.0479 292.0436 0002890 189.7337 170.3617 15.54212955336639
STARLINK-1308,45419,53.0515,0.000588,15.58179787,388.94371901236536,396.90648804611646,1 45419U 20019BM  26110.27858084  .00060592  00000+0  78878-3 0  9999,2 45419  53.0515 311.1881 0005880 197.2364 162.8448 15.58179787336148
STARLINK-1329,45531,53.0439,0.0002502,15.67549714,364.2283985115964,367.60312251295636,1 45531U 20025A   26110.38317082  .00037311  00000+0  34012-3 0  9996,2 45531  53.0439 237.1825 0002502 347.8273  12.2682 15.67549714331978
STARLINK-1338,45532,53.0461,8.78e-05,15.62108179,380.9749199836533,382.1619242557772,1 45532U 20025B   26110.06582038  .00079603  00000+0  88871-3 0  9999,2 45532  53.0461 243.6454 0000878 276.1899  83.9014 15.62108179331858
STARLINK-1350,45535,53.0713,6.77e-05,15.37140198,454.1083213340562,455.03346998312827,1 45535U 20025E   26110.41572332  .00007566  00000+0  21538-3 0  9993,2 45535  53.0713 197.0172 0000677  95.2335 264.8745 15.37140198332572
STARLINK-1362,45538,53.163,0.0001732,15.32639664,466.75459636783035,469.1260775573546,1 45538U 20025H   26110.43020180 -.00179573  00000+0 -57424-2 0  9999,2 45538  53.1630 266.8256 0001732  89.8422 270.2779 15.32639664331574
STARLINK-1368,45540,53.1592,9.87e-05,15.33039762,466.0735529793619,467.42473350403725,1 45540U 20025K   26109.85722028  .00027745  00000+0  86554-3 0  9994,2 45540  53.1592 269.8684 0000987  27.5588 332.5467 15.33039762331474
STARLINK-1371,45542,53.0492,0.0003181,15.5387945,403.2540403163075,407.5697341183559,1 45542U 20025M   26109.67672731  .00055439  00000+0  84744-3 0  9991,2 45542  53.0492 252.5740 0003181 301.3008  58.7690 15.53879450331692
STARLINK-1372,45543,53.161,8.04e-05,15.33458925,464.9515152337235,466.05197234372463,1 45543U 20025N   26110.15710981  .00019771  00000+0  61262-3 0  9996,2 45543  53.1610 268.1363 0000804  24.1530 335.9510 15.33458925330620
STARLINK-1373,45544,53.0474,0.0001613,15.58212424,391.73839883772325,393.922712971259,1 45544U 20025P   26110.09932079  .00072788  00000+0  94420-3 0  9993,2 45544  53.0474 248.8905 0001613 262.6741  97.4087 15.58212424331783
STARLINK-1327,45555,53.0427,0.0004056,15.6081589,382.55582299007983,388.0423223322223,1 45555U 20025AA  26110.29308299  .00056693  00000+0  66873-3 0  9996,2 45555  53.0427 224.6586 0004056 257.5910 102.4648 15.60815890332134
STARLINK-1356,45564,53.0487,0.0003167,15.51280629,410.83522943618027,415.1367267304968,1 45564U 20025AK  26110.62769179  .00039980  00000+0  67445-3 0  9997,2 45564  53.0487 233.1720 0003167 265.7876  94.2770 15.51280629332049
STARLINK-1357,45565,53.0478,0.0007118,15.64438949,370.0460379806145,379.65959428285896,1 45565U 20025AL  26109.97044499  .00076496  00000+0  77924-3 0  9991,2 45565  53.0478 196.9089 0007118 324.5229  35.5311 15.64438949332504
STARLINK-1361,45567,53.0466,0.0001856,15.54532023,402.25464770878716,404.7719963083164,1 45567U 20025AN  26110.56715864  .00060796  00000+0  90630-3 0  9996,2 45567  53.0466 232.5781 0001856 195.0264 165.0691 15.54532023332059
STARLINK-1363,45568,53.0355,0.0002553,15.89288616,302.5701799034932,305.98222008340963,1 45568U 20025AP  26110.66668981  .00237568  00000+0  78369-3 0  9993,2 45568  53.0355 186.2211 0002553   5.9993 211.8052 15.89288616  6023
STARLINK-1366,45569,53.0364,0.000221,15.86697697,310.07027707844554,313.0271181567923,1 45569U 20025AQ  26110.66668981  .00216485  00000+0  81416-3 0  9996,2 45569  53.0364 187.4657 0002210 328.5984 296.9070 15.86697697  6018
STARLINK-1376,45570,53.1594,0.0002649,15.33926805,462.297525770633,465.92254825084,1 45570U 20025AR  26110.08059852  .00030480  00000+0  92322-3 0  9992,2 45570  53.1594 245.0268 0002649 316.6614  43.4179 15.33926805331844
STARLINK-1320,45572,53.044,0.000273,15.75823219,340.4549595140279,344.12431245727475,1 45572U 20025AT  26110.37753590  .00055925  00000+0  35728-3 0  9994,2 45572  53.0440 138.9029 0002730 112.4008 247.7301 15.75823219333366
STARLINK-1321,45573,53.0452,0.0003566,15.55575037,398.06432734242935,402.8988381156314,1 45573U 20025AU  26109.64802964  .00061619  00000+0  88382-3 0  9994,2 45573  53.0452 221.3285 0003566 305.5635  54.5042 15.55575037331825
STARLINK-1331,45578,53.0492,0.000536,15.55334858,397.5456995376717,404.8131267325525,1 45578U 20025AZ  26110.56005883  .00056605  00000+0  81994-3 0  9998,2 45578  53.0492 223.6694 0005360 289.0141  71.0288 15.55334858332185
STARLINK-1333,45580,53.1597,0.0001189,15.31086226,471.7556856740457,473.3847838544716,1 45580U 20025BB  26110.36023647  .00013035  00000+0  43931-3 0  9996,2 45580  53.1597 244.2102 0001189  40.2026 319.9063 15.31086226331880
STARLINK-1335,45581,53.1581,0.0001556,15.32513915,467.2495229303122,469.3801387400681,1 45581U 20025BC  26109.65656802  .00008482  00000+0  27772-3 0  9997,2 45581  53.1581 244.7607 0001556  15.8702 344.2349 15.32513915331807
STARLINK-1337,45582,53.0487,0.0005944,15.66463322,365.0230250319719,373.044061373731,1 45582U 20025BD  26110.58780909  .00084586  00000+0  79378-3 0  9996,2 45582  53.0487 217.0009 0005944 301.3298  58.7134 15.66463322332262
STARLINK-1347,45586,53.0379,0.0004373,15.62791712,376.6420836740026,382.55239804105713,1 45586U 20025BH  26110.49174207  .00090531  00000+0  98176-3 0  9992,2 45586  53.0379 186.2823 0004373 334.2684  25.8111 15.62791712332685
STARLINK-1364,45589,53.0462,0.0004554,15.56908848,393.5242942691366,399.69473339393517,1 45589U 20025BL  26110.57353490  .00087678  00000+0  11902-2 0  9996,2 45589  53.0462 221.2092 0004554 259.1120 100.9378 15.56908848332201
STARLINK-1365,45590,53.0511,0.0003493,15.51805632,409.0825836748536,413.8257920787046,1 45590U 20025BM  26110.42248126  .00045838  00000+0  75724-3 0  9996,2 45590  53.0511 253.6908 0003493 250.8171 109.2460 15.51805632331753
STARLINK-1443,45660,53.1357,0.0001757,15.28788884,478.22677315613964,480.63652277903475,1 45660U 20035D   26110.60289313  .00030853  00000+0  10959-2 0  9997,2 45660  53.1357 231.0532 0001757 287.1194  72.9613 15.28788884325169
STARLINK-1446,45663,53.0218,0.0003994,15.44726093,429.4629707594431,434.90305438548603,1 45663U 20035G   26110.50218460  .00017927  00000+0  38574-3 0  9995,2 45663  53.0218 160.4814 0003994  39.3583 320.7712 15.44726093326133
STARLINK-1448,45665,53.0455,0.0005903,15.61345442,379.7781571274563,387.7612641900605,1 45665U 20035J   26110.56919009  .00080259  00000+0  92210-3 0  9995,2 45665  53.0455 209.6798 0005903 290.0083  70.0294 15.61345442325445
STARLINK-1451,45668,53.0519,5.01e-05,15.12125399,529.3733415238639,530.0655087376626,1 45668U 20035M   26110.08278761  .00016032  00000+0  93483-3 0  9999,2 45668  53.0519 238.8610 0000501  49.3236 310.7799 15.12125399325009
STARLINK-1452,45669,53.0279,0.0001267,15.51045331,412.8122602347703,414.53330483366517,1 45669U 20035N   26110.38146835  .00047226  00000+0  80131-3 0  9994,2 45669  53.0279 182.1172 0001267 283.1531  76.9335 15.51045331325820
STARLINK-1453,45670,53.0415,0.0002753,15.61805909,380.57938371444925,384.30175772488747,1 45670U 20035P   26110.35814982  .00063227  00000+0  71679-3 0  9994,2 45670  53.0415 171.1731 0002753  13.9305 346.1784 15.61805909325862
STARLINK-1454,45671,53.0463,0.0004127,15.59304495,386.87571355196906,392.4618604485595,1 45671U 20035Q   26110.00232120  .00040566  00000+0  50969-3 0  9995,2 45671  53.0463 212.9990 0004127 269.0935  90.9604 15.59304495325346
STARLINK-1456,45673,53.0464,0.0006558,15.57346308,390.89871938778106,399.7828128258079,1 45673U 20035S   26110.23928937  .00048719  00000+0  65647-3 0  9997,2 45673  53.0464 205.8517 0006558 329.1697  30.8928 15.57346308325482
STARLINK-1457,45674,53.0385,0.000498,15.93730019,288.53374819571127,295.1770606305072,1 45674U 20035T   26110.66668981  .00264974  38063-4  72007-3 0  9991,2 45674  53.0385 170.0105 0004980 351.3049 134.2908 15.93730019  6025
STARLINK-1458,45675,53.0488,0.0005113,15.4921159,415.5557996081434,422.5065838009814,1 45675U 20035U   26110.56801717  .00068963  00000+0  12407-2 0  9999,2 45675  53.0488 215.7520 0005113 282.8037  77.2399 15.49211590325339
STARLINK-1460,45676,53.1611,0.0001571,15.31060277,471.5713818973509,473.7238984312917,1 45676U 20035V   26110.59262098  .00037096  00000+0  12253-2 0  9998,2 45676  53.1611 230.2712 0001571  14.3270 345.7776 15.31060277325130
STARLINK-1392,45677,53.1559,0.0001144,15.33859192,463.52833175066735,465.0938838777347,1 45677U 20035W   26110.05658141  .00034043  00000+0  10316-2 0  9995,2 45677  53.1559 232.4913 0001144  62.9858 297.1261 15.33859192325094
STARLINK-1394,45679,53.0444,0.0008406,15.57338569,389.6694017842601,401.05701033068453,1 45679U 20035Y   26110.49305766  .00074137  00000+0  99206-3 0  9991,2 45679  53.0444 194.8421 0008406 328.5299  31.5208 15.57338569325650
STARLINK-1402,45685,53.0434,0.0007347,15.51375258,407.7205820575082,417.6990523707218,1 45685U 20035AE  26110.42007228  .00037902  00000+0  63731-3 0  9996,2 45685  53.0434 183.6621 0007347   4.4862 355.6211 15.51375258325815
